start=new Date('2022-12-12T00:00:00.000Z').valueOf();
sats=[{"BSTAR":"0.00025703000000","LAUNCH_DATE":"2022-04-29","MEAN_MOTION_DDOT":"0.0000000000000","EPOCH":"2022-12-11T19:24:26.085600","GP_ID":"220099461","CLASSIFICATION_TYPE":"U","SEMIMAJOR_AXIS":"6917.882","OBJECT_TYPE":"PAYLOAD","MEAN_ELEMENT_THEORY":"SGP4","FILE":"3691993","DECAY_DATE":null,"RA_OF_ASC_NODE":"123.7623","COUNTRY_CODE":"US","PERIOD":"95.438","MEAN_MOTION_DOT":"0.00003805","NORAD_CAT_ID":"52337","ARG_OF_PERICENTER":"52.7813","REV_AT_EPOCH":"3691","RCS_SIZE":"LARGE","MEAN_ANOMALY":"307.3457","OBJECT_ID":"2022-045G","TIME_SYSTEM":"UTC","TLE_LINE1":"1 52337U 22045G   22345.80863525  .00003805  00000-0  25703-3 0  9992","SITE":"AFETR","TLE_LINE2":"2 52337  53.2161 123.7623 0003050  52.7813 307.3457 15.08839604 36910","MEAN_MOTION":"15.08839604","ELEMENT_SET_NO":"999","APOAPSIS":"541.857","EPHEMERIS_TYPE":"0","ECCENTRICITY":"0.00030500","PERIAPSIS":"537.637","OBJECT_NAME":"STARLINK-3797","REF_FRAME":"TEME","INCLINATION":"53.2161","CENTER_NAME":"EARTH"},{"REF_FRAME":"TEME","INCLINATION":"53.2182","CENTER_NAME":"EARTH","ECCENTRICITY":"0.00021580","PERIAPSIS":"538.265","OBJECT_NAME":"STARLINK-3815","SITE":"AFETR","TLE_LINE2":"2 52338  53.2182 124.2110 0002158  37.7105 322.4038 15.08836053 36903","MEAN_MOTION":"15.08836053","APOAPSIS":"541.250","ELEMENT_SET_NO":"999","EPHEMERIS_TYPE":"0","OBJECT_ID":"2022-045H","TIME_SYSTEM":"UTC","TLE_LINE1":"1 52338U 22045H   22345.71390825  .00002224  00000-0  15779-3 0  9997","REV_AT_EPOCH":"3690","ARG_OF_PERICENTER":"37.7105","RCS_SIZE":"LARGE","MEAN_ANOMALY":"322.4038","RA_OF_ASC_NODE":"124.2110","PERIOD":"95.438","COUNTRY_CODE":"US","MEAN_MOTION_DOT":"0.00002224","NORAD_CAT_ID":"52338","CLASSIFICATION_TYPE":"U","SEMIMAJOR_AXIS":"6917.892","OBJECT_TYPE":"PAYLOAD","MEAN_ELEMENT_THEORY":"SGP4","FILE":"3691993","DECAY_DATE":null,"MEAN_MOTION_DDOT":"0.0000000000000","LAUNCH_DATE":"2022-04-29","BSTAR":"0.00015779000000","EPOCH":"2022-12-11T17:08:01.672800","GP_ID":"220100712"},{"CENTER_NAME":"EARTH","INCLINATION":"53.2157","REF_FRAME":"TEME","OBJECT_NAME":"STARLINK-3792","ECCENTRICITY":"0.00032260","PERIAPSIS":"537.472","ELEMENT_SET_NO":"999","APOAPSIS":"541.936","MEAN_MOTION":"15.08853578","EPHEMERIS_TYPE":"0","SITE":"AFETR","TLE_LINE2":"2 52339  53.2157 123.8911 0003226  53.5752 306.5537 15.08853578 36910","TIME_SYSTEM":"UTC","OBJECT_ID":"2022-045J","TLE_LINE1":"1 52339U 22045J   22345.78383964  .00003802  00000-0  25678-3 0  9993","MEAN_ANOMALY":"306.5537","REV_AT_EPOCH":"3691","ARG_OF_PERICENTER":"53.5752","RCS_SIZE":"LARGE","PERIOD":"95.437","COUNTRY_CODE":"US","MEAN_MOTION_DOT":"0.00003802","NORAD_CAT_ID":"52339","RA_OF_ASC_NODE":"123.8911","MEAN_ELEMENT_THEORY":"SGP4","DECAY_DATE":null,"FILE":"3691993","SEMIMAJOR_AXIS":"6917.839","CLASSIFICATION_TYPE":"U","OBJECT_TYPE":"PAYLOAD","LAUNCH_DATE":"2022-04-29","MEAN_MOTION_DDOT":"0.0000000000000","EPOCH":"2022-12-11T18:48:43.744896","BSTAR":"0.00025678000000","GP_ID":"220100463"},{"GP_ID":"220099211","EPOCH":"2022-12-11T16:20:17.085120","LAUNCH_DATE":"2022-04-29","MEAN_MOTION_DDOT":"0.0000000000000","BSTAR":"0.00016029000000","FILE":"3691993","DECAY_DATE":null,"MEAN_ELEMENT_THEORY":"SGP4","OBJECT_TYPE":"PAYLOAD","SEMIMAJOR_AXIS":"6917.902","CLASSIFICATION_TYPE":"U","NORAD_CAT_ID":"52340","MEAN_MOTION_DOT":"0.00002263","PERIOD":"95.438","COUNTRY_CODE":"US","RA_OF_ASC_NODE":"114.3392","MEAN_ANOMALY":"309.3258","RCS_SIZE":"LARGE","ARG_OF_PERICENTER":"50.8018","REV_AT_EPOCH":"3702","TLE_LINE1":"1 52340U 22045K   22345.68075330  .00002263  00000-0  16029-3 0  9999","OBJECT_ID":"2022-045K","TIME_SYSTEM":"UTC","EPHEMERIS_TYPE":"0","MEAN_MOTION":"15.08833045","ELEMENT_SET_NO":"999","APOAPSIS":"541.976","SITE":"AFETR","TLE_LINE2":"2 52340  53.2178 114.3392 0003193  50.8018 309.3258 15.08833045 37022","OBJECT_NAME":"STARLINK-3818","ECCENTRICITY":"0.00031930","PERIAPSIS":"537.558","CENTER_NAME":"EARTH","REF_FRAME":"TEME","INCLINATION":"53.2178"},{"ECCENTRICITY":"0.00035620","PERIAPSIS":"537.268","OBJECT_NAME":"STARLINK-3843","INCLINATION":"53.2156","REF_FRAME":"TEME","CENTER_NAME":"EARTH","TIME_SYSTEM":"UTC","OBJECT_ID":"2022-045L","TLE_LINE1":"1 52341U 22045L   22345.65502574  .00002759  00000-0  19141-3 0  9990","SITE":"AFETR","TLE_LINE2":"2 52341  53.2156 124.4650 0003562  51.1251 309.0059 15.08844199 36893","APOAPSIS":"542.197","ELEMENT_SET_NO":"999","MEAN_MOTION":"15.08844199","EPHEMERIS_TYPE":"0","RA_OF_ASC_NODE":"124.4650","COUNTRY_CODE":"US","PERIOD":"95.437","MEAN_MOTION_DOT":"0.00002759","NORAD_CAT_ID":"52341","REV_AT_EPOCH":"3689","ARG_OF_PERICENTER":"51.1251","RCS_SIZE":"LARGE","MEAN_ANOMALY":"309.0059","BSTAR":"0.00019141000000","LAUNCH_DATE":"2022-04-29","MEAN_MOTION_DDOT":"0.0000000000000","EPOCH":"2022-12-11T15:43:14.223936","GP_ID":"220099961","CLASSIFICATION_TYPE":"U","SEMIMAJOR_AXIS":"6917.868","OBJECT_TYPE":"PAYLOAD","MEAN_ELEMENT_THEORY":"SGP4","DECAY_DATE":null,"FILE":"3691993"},{"MEAN_ANOMALY":"309.7024","RCS_SIZE":"LARGE","REV_AT_EPOCH":"3703","ARG_OF_PERICENTER":"50.4235","MEAN_MOTION_DOT":"0.00004198","NORAD_CAT_ID":"52342","COUNTRY_CODE":"US","PERIOD":"95.437","RA_OF_ASC_NODE":"114.3729","FILE":"3691993","DECAY_DATE":null,"MEAN_ELEMENT_THEORY":"SGP4","OBJECT_TYPE":"PAYLOAD","SEMIMAJOR_AXIS":"6917.866","CLASSIFICATION_TYPE":"U","GP_ID":"220100213","MEAN_MOTION_DDOT":"0.0000000000000","LAUNCH_DATE":"2022-04-29","EPOCH":"2022-12-11T16:09:40.926240","BSTAR":"0.00028168000000","CENTER_NAME":"EARTH","REF_FRAME":"TEME","INCLINATION":"53.2178","OBJECT_NAME":"STARLINK-3850","ECCENTRICITY":"0.00030250","PERIAPSIS":"537.639","EPHEMERIS_TYPE":"0","MEAN_MOTION":"15.08844651","ELEMENT_SET_NO":"999","APOAPSIS":"541.824","SITE":"AFETR","TLE_LINE2":"2 52342  53.2178 114.3729 0003025  50.4235 309.7024 15.08844651 37030","TLE_LINE1":"1 52342U 22045M   22345.67339035  .00004198  00000-0  28168-3 0  9991","OBJECT_ID":"2022-045M","TIME_SYSTEM":"UTC"},{"TLE_LINE2":"2 52343  53.2204 124.3314 0003194  47.7092 312.4171 15.08837538 36904","SITE":"AFETR","MEAN_MOTION":"15.08837538","ELEMENT_SET_NO":"999","APOAPSIS":"541.962","EPHEMERIS_TYPE":"0","OBJECT_ID":"2022-045N","TIME_SYSTEM":"UTC","TLE_LINE1":"1 52343U 22045N   22345.68719009  .00001500  00000-0  11236-3 0  9998","REF_FRAME":"TEME","INCLINATION":"53.2204","CENTER_NAME":"EARTH","PERIAPSIS":"537.543","ECCENTRICITY":"0.00031940","OBJECT_NAME":"STARLINK-3849","CLASSIFICATION_TYPE":"U","SEMIMAJOR_AXIS":"6917.888","OBJECT_TYPE":"PAYLOAD","MEAN_ELEMENT_THEORY":"SGP4","FILE":"3691993","DECAY_DATE":null,"BSTAR":"0.00011236000000","LAUNCH_DATE":"2022-04-29","MEAN_MOTION_DDOT":"0.0000000000000","EPOCH":"2022-12-11T16:29:33.223776","GP_ID":"220100963","ARG_OF_PERICENTER":"47.7092","REV_AT_EPOCH":"3690","RCS_SIZE":"LARGE","MEAN_ANOMALY":"312.4171","RA_OF_ASC_NODE":"124.3314","PERIOD":"95.438","COUNTRY_CODE":"US","MEAN_MOTION_DOT":"0.00001500","NORAD_CAT_ID":"52343"},{"TLE_LINE1":"1 52344U 22045P   22345.73321923  .00000001  00000-0  18189-4 0  9999","TIME_SYSTEM":"UTC","OBJECT_ID":"2022-045P","SITE":"AFETR","TLE_LINE2":"2 52344  53.2172 114.1111 0002329  34.4209 325.6934 15.08848803 37049","EPHEMERIS_TYPE":"0","APOAPSIS":"541.330","ELEMENT_SET_NO":"999","MEAN_MOTION":"15.08848803","ECCENTRICITY":"0.00023290","PERIAPSIS":"538.107","OBJECT_NAME":"STARLINK-3851","INCLINATION":"53.2172","REF_FRAME":"TEME","CENTER_NAME":"EARTH","GP_ID":"220099711","MEAN_MOTION_DDOT":"0.0000000000000","LAUNCH_DATE":"2022-04-29","EPOCH":"2022-12-11T17:35:50.141472","BSTAR":"0.00001818900000","OBJECT_TYPE":"PAYLOAD","CLASSIFICATION_TYPE":"U","SEMIMAJOR_AXIS":"6917.853","DECAY_DATE":null,"FILE":"3691993","MEAN_ELEMENT_THEORY":"SGP4","RA_OF_ASC_NODE":"114.1111","MEAN_MOTION_DOT":"0.00000001","NORAD_CAT_ID":"52344","COUNTRY_CODE":"US","PERIOD":"95.437","RCS_SIZE":"LARGE","ARG_OF_PERICENTER":"34.4209","REV_AT_EPOCH":"3704","MEAN_ANOMALY":"325.6934"},{"RCS_SIZE":"LARGE","ARG_OF_PERICENTER":"28.8737","REV_AT_EPOCH":"3703","MEAN_ANOMALY":"331.2410","RA_OF_ASC_NODE":"114.0336","NORAD_CAT_ID":"52345","MEAN_MOTION_DOT":"0.00003758","PERIOD":"95.438","COUNTRY_CODE":"US","OBJECT_TYPE":"PAYLOAD","SEMIMAJOR_AXIS":"6917.906","CLASSIFICATION_TYPE":"U","DECAY_DATE":null,"FILE":"3691993","MEAN_ELEMENT_THEORY":"SGP4","GP_ID":"220099462","MEAN_MOTION_DDOT":"0.0000000000000","LAUNCH_DATE":"2022-04-29","EPOCH":"2022-12-11T18:00:57.913056","BSTAR":"0.00025414000000","INCLINATION":"53.2191","REF_FRAME":"TEME","CENTER_NAME":"EARTH","PERIAPSIS":"537.833","ECCENTRICITY":"0.00028020","OBJECT_NAME":"STARLINK-3852","TLE_LINE2":"2 52345  53.2191 114.0336 0002802  28.8737 331.2410 15.08831521 37038","SITE":"AFETR","EPHEMERIS_TYPE":"0","APOAPSIS":"541.710","ELEMENT_SET_NO":"999","MEAN_MOTION":"15.08831521","TLE_LINE1":"1 52345U 22045Q   22345.75067029  .00003758  00000-0  25414-3 0  9996","TIME_SYSTEM":"UTC","OBJECT_ID":"2022-045Q"},{"FILE":"3691993","DECAY_DATE":null,"MEAN_ELEMENT_THEORY":"SGP4","OBJECT_TYPE":"PAYLOAD","CLASSIFICATION_TYPE":"U","SEMIMAJOR_AXIS":"6917.868","GP_ID":"220100713","LAUNCH_DATE":"2022-04-29","EPOCH":"2022-12-11T19:09:51.394464","MEAN_MOTION_DDOT":"0.0000000000000","BSTAR":"0.00028094000000","MEAN_ANOMALY":"309.3390","RCS_SIZE":"LARGE","ARG_OF_PERICENTER":"50.7862","REV_AT_EPOCH":"3705","NORAD_CAT_ID":"52346","MEAN_MOTION_DOT":"0.00004186","COUNTRY_CODE":"US","PERIOD":"95.437","RA_OF_ASC_NODE":"113.8156","EPHEMERIS_TYPE":"0","MEAN_MOTION":"15.08844093","ELEMENT_SET_NO":"999","APOAPSIS":"541.760","TLE_LINE2":"2 52346  53.2164 113.8156 0002930  50.7862 309.3390 15.08844093 37054","SITE":"AFETR","TLE_LINE1":"1 52346U 22045R   22345.79851151  .00004186  00000-0  28094-3 0  9991","OBJECT_ID":"2022-045R","TIME_SYSTEM":"UTC","CENTER_NAME":"EARTH","REF_FRAME":"TEME","INCLINATION":"53.2164","OBJECT_NAME":"STARLINK-3812","ECCENTRICITY":"0.00029300","PERIAPSIS":"537.706"}];
